start=new Date('2022-03-16T00:00:00.000Z').valueOf();
sats=[{"RA_OF_ASC_NODE":"208.5988","MEAN_ANOMALY":"287.0405","ARG_OF_PERICENTER":"73.0730","DECAY_DATE":null,"SEMIMAJOR_AXIS":"6925.414","CENTER_NAME":"EARTH","OBJECT_ID":"2020-070BF","MEAN_MOTION_DOT":"0.00000386","APOAPSIS":"548.204","ELEMENT_SET_NO":"999","FILE":"3360930","EPHEMERIS_TYPE":"0","OBJECT_NAME":"STARLINK-1736","SITE":"AFETR","TLE_LINE2":"2 46585  53.0545 208.5988 0001336  73.0730 287.0405 15.06378575 80477","PERIOD":"95.593","TLE_LINE1":"1 46585U 20070BF  22074.63895038  .00000386  00000-0  44850-4 0  9996","CLASSIFICATION_TYPE":"U","INCLINATION":"53.0545","TIME_SYSTEM":"UTC","OBJECT_TYPE":"PAYLOAD","COUNTRY_CODE":"US","MEAN_MOTION_DDOT":"0.0000000000000","PERIAPSIS":"546.354","MEAN_ELEMENT_THEORY":"SGP4","EPOCH":"2022-03-15T15:20:05.312832","GP_ID":"198847687","MEAN_MOTION":"15.06378575","REF_FRAME":"TEME","RCS_SIZE":"LARGE","ECCENTRICITY":"0.00013360","LAUNCH_DATE":"2020-10-06","BSTAR":"0.00004485000000","REV_AT_EPOCH":"8047","NORAD_CAT_ID":"46585"},{"MEAN_MOTION_DDOT":"0.0000000000000","COUNTRY_CODE":"US","PERIAPSIS":"546.410","MEAN_ELEMENT_THEORY":"SGP4","EPOCH":"2022-03-15T16:39:39.883968","LAUNCH_DATE":"2020-10-06","BSTAR":"-0.00011701000000","REF_FRAME":"TEME","GP_ID":"198847437","MEAN_MOTION":"15.06400408","ECCENTRICITY":"0.00011580","RCS_SIZE":"LARGE","NORAD_CAT_ID":"46586","REV_AT_EPOCH":"8048","CLASSIFICATION_TYPE":"U","TIME_SYSTEM":"UTC","OBJECT_TYPE":"PAYLOAD","INCLINATION":"53.0535","OBJECT_ID":"2020-070BG","CENTER_NAME":"EARTH","APOAPSIS":"548.014","MEAN_MOTION_DOT":"-0.00002024","SITE":"AFETR","TLE_LINE2":"2 46586  53.0535 208.3556 0001158  89.0072 271.1050 15.06400408 80486","PERIOD":"95.592","ELEMENT_SET_NO":"999","FILE":"3360930","OBJECT_NAME":"STARLINK-1737","EPHEMERIS_TYPE":"0","TLE_LINE1":"1 46586U 20070BG  22074.69421162 -.00002024  00000-0 -11701-3 0  9997","MEAN_ANOMALY":"271.1050","RA_OF_ASC_NODE":"208.3556","ARG_OF_PERICENTER":"89.0072","DECAY_DATE":null,"SEMIMAJOR_AXIS":"6925.347"},{"EPHEMERIS_TYPE":"0","FILE":"3360930","OBJECT_NAME":"STARLINK-1746","ELEMENT_SET_NO":"999","TLE_LINE2":"2 46588  53.0564 208.4307 0001528  67.3723 292.7427 15.06394908 80482","PERIOD":"95.592","SITE":"AFETR","TLE_LINE1":"1 46588U 20070BJ  22074.67579102  .00002439  00000-0  18258-3 0  9997","CENTER_NAME":"EARTH","OBJECT_ID":"2020-070BJ","MEAN_MOTION_DOT":"0.00002439","APOAPSIS":"548.287","DECAY_DATE":null,"SEMIMAJOR_AXIS":"6925.364","RA_OF_ASC_NODE":"208.4307","MEAN_ANOMALY":"292.7427","ARG_OF_PERICENTER":"67.3723","RCS_SIZE":"LARGE","ECCENTRICITY":"0.00015280","MEAN_MOTION":"15.06394908","GP_ID":"198846188","REF_FRAME":"TEME","BSTAR":"0.00018258000000","LAUNCH_DATE":"2020-10-06","REV_AT_EPOCH":"8048","NORAD_CAT_ID":"46588","COUNTRY_CODE":"US","MEAN_MOTION_DDOT":"0.0000000000000","EPOCH":"2022-03-15T16:13:08.344128","PERIAPSIS":"546.171","MEAN_ELEMENT_THEORY":"SGP4","INCLINATION":"53.0564","OBJECT_TYPE":"PAYLOAD","TIME_SYSTEM":"UTC","CLASSIFICATION_TYPE":"U"},{"OBJECT_ID":"2020-070BK","CENTER_NAME":"EARTH","APOAPSIS":"548.270","MEAN_MOTION_DOT":"-0.00003355","PERIOD":"95.593","TLE_LINE2":"2 46589  53.0544 207.8680 0001448  64.7613 295.3526 15.06382518 80504","SITE":"AFETR","FILE":"3360479","OBJECT_NAME":"STARLINK-1749","EPHEMERIS_TYPE":"0","ELEMENT_SET_NO":"999","TLE_LINE1":"1 46589U 20070BK  22074.80111537 -.00003355  00000-0 -20652-3 0  9998","MEAN_ANOMALY":"295.3526","RA_OF_ASC_NODE":"207.8680","ARG_OF_PERICENTER":"64.7613","DECAY_DATE":null,"SEMIMAJOR_AXIS":"6925.402","MEAN_MOTION_DDOT":"0.0000000000000","COUNTRY_CODE":"US","EPOCH":"2022-03-15T19:13:36.367968","PERIAPSIS":"546.264","MEAN_ELEMENT_THEORY":"SGP4","BSTAR":"-0.00020652000000","LAUNCH_DATE":"2020-10-06","RCS_SIZE":"LARGE","ECCENTRICITY":"0.00014480","GP_ID":"198814192","MEAN_MOTION":"15.06382518","REF_FRAME":"TEME","NORAD_CAT_ID":"46589","REV_AT_EPOCH":"8050","CLASSIFICATION_TYPE":"U","OBJECT_TYPE":"PAYLOAD","TIME_SYSTEM":"UTC","INCLINATION":"53.0544"},{"OBJECT_ID":"2020-070BL","CENTER_NAME":"EARTH","APOAPSIS":"308.730","MEAN_MOTION_DOT":"0.00669832","PERIOD":"90.616","TLE_LINE2":"2 46590  53.0523  86.0731 0005978 271.6119  88.4221 15.89125676 82189","SITE":"AFETR","FILE":"3360479","EPHEMERIS_TYPE":"0","OBJECT_NAME":"STARLINK-1754","ELEMENT_SET_NO":"999","TLE_LINE1":"1 46590U 20070BL  22074.75464727  .00669832  00000-0  21162-2 0  9998","MEAN_ANOMALY":"88.4221","RA_OF_ASC_NODE":"86.0731","ARG_OF_PERICENTER":"271.6119","DECAY_DATE":null,"SEMIMAJOR_AXIS":"6682.870","MEAN_MOTION_DDOT":"0.0000000000000","COUNTRY_CODE":"US","EPOCH":"2022-03-15T18:06:41.524128","PERIAPSIS":"300.740","MEAN_ELEMENT_THEORY":"SGP4","BSTAR":"0.00211620000000","LAUNCH_DATE":"2020-10-06","RCS_SIZE":"LARGE","ECCENTRICITY":"0.00059780","GP_ID":"198814686","MEAN_MOTION":"15.89125676","REF_FRAME":"TEME","NORAD_CAT_ID":"46590","REV_AT_EPOCH":"8218","CLASSIFICATION_TYPE":"U","OBJECT_TYPE":"PAYLOAD","TIME_SYSTEM":"UTC","INCLINATION":"53.0523"},{"CLASSIFICATION_TYPE":"U","INCLINATION":"53.0528","TIME_SYSTEM":"UTC","OBJECT_TYPE":"PAYLOAD","PERIAPSIS":"546.252","MEAN_ELEMENT_THEORY":"SGP4","EPOCH":"2022-03-15T15:46:35.769216","COUNTRY_CODE":"US","MEAN_MOTION_DDOT":"0.0000000000000","REV_AT_EPOCH":"7953","NORAD_CAT_ID":"46591","GP_ID":"198847937","REF_FRAME":"TEME","MEAN_MOTION":"15.06396800","ECCENTRICITY":"0.00014020","RCS_SIZE":"LARGE","LAUNCH_DATE":"2020-10-06","BSTAR":"-0.00014394000000","ARG_OF_PERICENTER":"77.2914","RA_OF_ASC_NODE":"208.5143","MEAN_ANOMALY":"282.8232","SEMIMAJOR_AXIS":"6925.358","DECAY_DATE":null,"MEAN_MOTION_DOT":"-0.00002425","APOAPSIS":"548.194","CENTER_NAME":"EARTH","OBJECT_ID":"2020-070BM","TLE_LINE1":"1 46591U 20070BM  22074.65735844 -.00002425  00000-0 -14394-3 0  9990","ELEMENT_SET_NO":"999","OBJECT_NAME":"STARLINK-1755","FILE":"3360930","EPHEMERIS_TYPE":"0","SITE":"AFETR","PERIOD":"95.592","TLE_LINE2":"2 46591  53.0528 208.5143 0001402  77.2914 282.8232 15.06396800 79539"},{"APOAPSIS":"548.605","MEAN_MOTION_DOT":"-0.00022923","OBJECT_ID":"2020-073B","CENTER_NAME":"EARTH","TLE_LINE1":"1 46671U 20073B   22074.86190229 -.00022923  00000-0 -15264-2 0  9998","SITE":"AFETR","PERIOD":"95.594","TLE_LINE2":"2 46671  53.0539 297.5981 0001848  56.1577 303.9587 15.06363727 78262","ELEMENT_SET_NO":"999","FILE":"3360575","OBJECT_NAME":"STARLINK-1715","EPHEMERIS_TYPE":"0","ARG_OF_PERICENTER":"56.1577","MEAN_ANOMALY":"303.9587","RA_OF_ASC_NODE":"297.5981","SEMIMAJOR_AXIS":"6925.460","DECAY_DATE":null,"PERIAPSIS":"546.045","MEAN_ELEMENT_THEORY":"SGP4","EPOCH":"2022-03-15T20:41:08.357856","MEAN_MOTION_DDOT":"0.0000000000000","COUNTRY_CODE":"US","NORAD_CAT_ID":"46671","REV_AT_EPOCH":"7826","LAUNCH_DATE":"2020-10-18","BSTAR":"-0.00152640000000","GP_ID":"198816656","MEAN_MOTION":"15.06363727","REF_FRAME":"TEME","RCS_SIZE":"LARGE","ECCENTRICITY":"0.00018480","CLASSIFICATION_TYPE":"U","TIME_SYSTEM":"UTC","OBJECT_TYPE":"PAYLOAD","INCLINATION":"53.0539"},{"CLASSIFICATION_TYPE":"U","INCLINATION":"53.0538","TIME_SYSTEM":"UTC","OBJECT_TYPE":"PAYLOAD","COUNTRY_CODE":"US","MEAN_MOTION_DDOT":"0.0000000000000","MEAN_ELEMENT_THEORY":"SGP4","PERIAPSIS":"546.238","EPOCH":"2022-03-15T21:38:55.700448","MEAN_MOTION":"15.06367475","GP_ID":"198816665","REF_FRAME":"TEME","ECCENTRICITY":"0.00015530","RCS_SIZE":"LARGE","LAUNCH_DATE":"2020-10-18","BSTAR":"-0.00035038000000","REV_AT_EPOCH":"7834","NORAD_CAT_ID":"46672","RA_OF_ASC_NODE":"292.4045","MEAN_ANOMALY":"296.5471","ARG_OF_PERICENTER":"63.5677","DECAY_DATE":null,"SEMIMAJOR_AXIS":"6925.448","CENTER_NAME":"EARTH","OBJECT_ID":"2020-073C","MEAN_MOTION_DOT":"-0.00005492","APOAPSIS":"548.389","ELEMENT_SET_NO":"999","FILE":"3360575","OBJECT_NAME":"STARLINK-1716","EPHEMERIS_TYPE":"0","SITE":"AFETR","PERIOD":"95.594","TLE_LINE2":"2 46672  53.0538 292.4045 0001553  63.5677 296.5471 15.06367475 78345","TLE_LINE1":"1 46672U 20073C   22074.90203357 -.00005492  00000-0 -35038-3 0  9995"},{"DECAY_DATE":null,"SEMIMAJOR_AXIS":"6925.469","RA_OF_ASC_NODE":"307.5590","MEAN_ANOMALY":"295.6059","ARG_OF_PERICENTER":"64.5109","FILE":"3360576","EPHEMERIS_TYPE":"0","OBJECT_NAME":"STARLINK-1717","ELEMENT_SET_NO":"999","PERIOD":"95.595","TLE_LINE2":"2 46673  53.0544 307.5590 0001731  64.5109 295.6059 15.06360799 78125","SITE":"AFETR","TLE_LINE1":"1 46673U 20073D   22074.87204628 -.00017476  00000-0 -11584-2 0  9998","CENTER_NAME":"EARTH","OBJECT_ID":"2020-073D","MEAN_MOTION_DOT":"-0.00017476","APOAPSIS":"548.533","INCLINATION":"53.0544","OBJECT_TYPE":"PAYLOAD","TIME_SYSTEM":"UTC","CLASSIFICATION_TYPE":"U","RCS_SIZE":"LARGE","ECCENTRICITY":"0.00017310","MEAN_MOTION":"15.06360799","GP_ID":"198816668","REF_FRAME":"TEME","BSTAR":"-0.00115840000000","LAUNCH_DATE":"2020-10-18","REV_AT_EPOCH":"7812","NORAD_CAT_ID":"46673","COUNTRY_CODE":"US","MEAN_MOTION_DDOT":"0.0000000000000","EPOCH":"2022-03-15T20:55:44.798592","PERIAPSIS":"546.135","MEAN_ELEMENT_THEORY":"SGP4"},{"REV_AT_EPOCH":"7833","NORAD_CAT_ID":"46674","ECCENTRICITY":"0.00016610","RCS_SIZE":"LARGE","GP_ID":"198820173","REF_FRAME":"TEME","MEAN_MOTION":"15.06365554","BSTAR":"0.00044015000000","LAUNCH_DATE":"2020-10-18","EPOCH":"2022-03-15T20:40:32.804256","MEAN_ELEMENT_THEORY":"SGP4","PERIAPSIS":"546.169","COUNTRY_CODE":"US","MEAN_MOTION_DDOT":"0.0000000000000","INCLINATION":"53.0551","OBJECT_TYPE":"PAYLOAD","TIME_SYSTEM":"UTC","CLASSIFICATION_TYPE":"U","TLE_LINE1":"1 46674U 20073E   22074.86149079  .00006274  00000-0  44015-3 0  9994","EPHEMERIS_TYPE":"0","FILE":"3360707","OBJECT_NAME":"STARLINK-1718","ELEMENT_SET_NO":"999","TLE_LINE2":"2 46674  53.0551 292.6030 0001661  69.8804 290.2363 15.06365554 78335","PERIOD":"95.594","SITE":"AFETR","MEAN_MOTION_DOT":"0.00006274","APOAPSIS":"548.469","CENTER_NAME":"EARTH","OBJECT_ID":"2020-073E","SEMIMAJOR_AXIS":"6925.454","DECAY_DATE":null,"ARG_OF_PERICENTER":"69.8804","RA_OF_ASC_NODE":"292.6030","MEAN_ANOMALY":"290.2363"}];
